NORAD_CAT_ID,OBJECT_NAME,OBJECT_TYPE,EPOCH,MEAN_MOTION,ECCENTRICITY,INCLINATION,RA_OF_ASC_NODE,ARG_OF_PERICENTER,MEAN_ANOMALY,BSTAR,MEAN_MOTION_DOT,MEAN_MOTION_DDOT,TLE_LINE0,TLE_LINE1,TLE_LINE2,SEMIMAJOR_AXIS,PERIOD,APOGEE,PERIGEE,DECAYED
53984.0,STARLINK-5142,PAYLOAD,2024-05-02 23:54:58,15.08847906,0.0001381,53.217,7.5794,77.5982,282.5165,0.0001271,1.736e-05,0.0,0 STARLINK-5142,1 53984U 22125W   24123.99650997  .00001736  00000-0  12710-3 0  9998,2 53984  53.2170   7.5794 0001381  77.5982 282.5165 15.08847906 87521,6917.856,95.437,540.677,538.766,0.0
53984.0,STARLINK-5142,PAYLOAD,2024-05-03 09:27:17,15.08848704,0.0001387,53.2155,5.7977,84.2164,275.8986,0.00013442,1.852e-05,0.0,0 STARLINK-5142,1 53984U 22125W   24124.39394893  .00001852  00000-0  13442-3 0  9995,2 53984  53.2155   5.7977 0001387  84.2164 275.8986 15.08848704 87512,6917.854,95.437,540.678,538.759,0.0
53984.0,STARLINK-5142,PAYLOAD,2024-05-03 20:35:00,15.08816755,0.0001321,53.2154,3.7146,95.4001,264.7142,-0.00033481,-5.609e-05,0.0,0 STARLINK-5142,1 53984U 22125W   24124.85764448 -.00005609  00000-0 -33481-3 0  9994,2 53984  53.2154   3.7146 0001321  95.4001 264.7142 15.08816755 87656,6917.951,95.439,540.73,538.903,0.0
53984.0,STARLINK-5142,PAYLOAD,2024-05-03 22:10:23,15.08816779,0.0001349,53.2155,3.417,95.665,264.4495,-0.00031504,-5.295e-05,0.0,0 STARLINK-5142,1 53984U 22125W   24124.92388536 -.00005295  00000-0 -31504-3 0  9997,2 53984  53.2155   3.4170 0001349  95.6650 264.4495 15.08816779 87590,6917.951,95.439,540.75,538.883,0.0
53984.0,STARLINK-5142,PAYLOAD,2024-05-04 09:18:05,15.08826103,0.000148,53.2174,1.3352,98.7242,261.3917,-4e-05,-9.24e-06,0.0,0 STARLINK-5142,1 53984U 22125W   24125.38756745 -.00000924  00000-0 -40000-4 0  9995,2 53984  53.2174   1.3352 0001480  98.7242 261.3917 15.08826103 87730,6917.923,95.438,540.812,538.764,0.0
53984.0,STARLINK-5142,PAYLOAD,2024-05-04 22:01:11,15.08841651,0.0001451,53.2171,358.9568,102.5468,257.5687,0.00097505,0.00015265,0.0,0 STARLINK-5142,1 53984U 22125W   24125.91749265  .00015265  00000-0  97505-3 0  9996,2 53984  53.2171 358.9568 0001451 102.5468 257.5687 15.08841651 87814,6917.875,95.437,540.744,538.737,0.0
53984.0,STARLINK-5142,PAYLOAD,2024-05-05 21:51:57,15.08868079,0.0001382,53.2179,354.4977,97.2138,262.9011,0.00096102,0.00015051,0.0,0 STARLINK-5142,1 53984U 22125W   24126.91108413  .00015051  00000-0  96102-3 0  9996,2 53984  53.2179 354.4977 0001382  97.2138 262.9011 15.08868079 87896,6917.795,95.436,540.616,538.704,0.0
53984.0,STARLINK-5142,PAYLOAD,2024-05-06 01:02:43,15.08872061,0.0001332,53.2179,353.9022,96.9528,263.1615,0.0009998,0.00015674,0.0,0 STARLINK-5142,1 53984U 22125W   24127.04356149  .00015674  00000-0  99980-3 0  9990,2 53984  53.2179 353.9022 0001332  96.9528 263.1615 15.08872061 87984,6917.782,95.436,540.569,538.726,0.0
53984.0,STARLINK-5142,PAYLOAD,2024-05-06 20:07:20,15.08857967,0.0001431,53.2182,350.3344,99.1318,260.9836,0.00020997,3.057e-05,0.0,0 STARLINK-5142,1 53984U 22125W   24127.83843565  .00003057  00000-0  20997-3 0  9994,2 53984  53.2182 350.3344 0001431  99.1318 260.9836 15.08857967 88101,6917.825,95.436,540.68,538.701,0.0
53984.0,STARLINK-5142,PAYLOAD,2024-05-06 21:42:43,15.08858146,0.0001309,53.2182,350.0371,90.2463,269.8679,0.00024235,3.573e-05,0.0,0 STARLINK-5142,1 53984U 22125W   24127.90467590  .00003573  00000-0  24235-3 0  9994,2 53984  53.2182 350.0371 0001309  90.2463 269.8679 15.08858146 88041,6917.825,95.436,540.595,538.784,0.0
53984.0,STARLINK-5142,PAYLOAD,2024-05-07 07:15:02,15.08865358,0.0001281,53.2181,348.2527,89.8099,270.304,0.00035438,5.36e-05,0.0,0 STARLINK-5142,1 53984U 22125W   24128.30210929  .00005360  00000-0  35438-3 0  9994,2 53984  53.2181 348.2527 0001281  89.8099 270.3040 15.08865358 88109,6917.803,95.436,540.554,538.782,0.0
53984.0,STARLINK-5142,PAYLOAD,2024-05-07 19:58:08,15.08824737,0.0001301,53.2174,345.8713,96.1782,263.9359,-0.00042655,-7.067e-05,0.0,0 STARLINK-5142,1 53984U 22125W   24128.83204277 -.00007067  00000-0 -42655-3 0  9998,2 53984  53.2174 345.8713 0001301  96.1782 263.9359 15.08824737 88257,6917.927,95.439,540.692,538.892,0.0
53984.0,STARLINK-5142,PAYLOAD,2024-05-07 21:33:31,15.08828152,0.0001379,53.2178,345.5742,100.4598,259.655,-0.00029155,-4.923e-05,0.0,0 STARLINK-5142,1 53984U 22125W   24128.89828510 -.00004923  00000-0 -29155-3 0  9994,2 53984  53.2178 345.5742 0001379 100.4598 259.6550 15.08828152 88192,6917.917,95.438,540.736,538.828,0.0
53984.0,STARLINK-5142,PAYLOAD,2024-05-08 07:05:50,15.08837043,0.0001362,53.2184,343.7926,103.9938,256.1206,-5.2648e-05,-1.126e-05,0.0,0 STARLINK-5142,1 53984U 22125W   24129.29572273 -.00001126  00000-0 -52648-4 0  9997,2 53984  53.2184 343.7926 0001362 103.9938 256.1206 15.08837043 88325,6917.889,95.438,540.697,538.812,0.0
53984.0,STARLINK-5142,PAYLOAD,2024-05-08 21:24:18,15.08841524,0.0001361,53.2178,341.1172,111.5741,248.5396,0.00026227,3.889e-05,0.0,0 STARLINK-5142,1 53984U 22125W   24129.89188357  .00003889  00000-0  26227-3 0  9998,2 53984  53.2178 341.1172 0001361 111.5741 248.5396 15.08841524 88345,6917.876,95.437,540.682,538.799,0.0
53984.0,STARLINK-5142,PAYLOAD,2024-05-09 06:56:37,15.0885847,0.00012,53.2179,339.332,88.0331,272.0799,0.00073812,0.00011485,0.0,0 STARLINK-5142,1 53984U 22125W   24130.28932091  .00011485  00000-0  73812-3 0  9998,2 53984  53.2179 339.3320 0001200  88.0331 272.0799 15.08858470 88476,6917.824,95.436,540.519,538.859,0.0
53984.0,STARLINK-5142,PAYLOAD,2024-05-09 19:39:42,15.08844509,0.0001211,53.2171,336.9533,91.5616,268.5515,0.00034026,5.132e-05,0.0,0 STARLINK-5142,1 53984U 22125W   24130.81924454  .00005132  00000-0  34026-3 0  9997,2 53984  53.2171 336.9533 0001211  91.5616 268.5515 15.08844509 88557,6917.867,95.437,540.569,538.894,0.0
53984.0,STARLINK-5142,PAYLOAD,2024-05-09 21:15:05,15.08848326,0.0001102,53.2171,336.6559,91.2739,268.8379,0.00054009,8.32e-05,0.0,0 STARLINK-5142,1 53984U 22125W   24130.88548380  .00008320  00000-0  54009-3 0  9999,2 53984  53.2171 336.6559 0001102  91.2739 268.8379 15.08848326 88499,6917.855,95.437,540.482,538.958,0.0
53984.0,STARLINK-5142,PAYLOAD,2024-05-10 13:08:57,15.08860723,0.0002583,53.2173,333.6828,82.2704,277.8581,0.0012876,0.00020276,0.0,0 STARLINK-5142,1 53984U 22125W   24131.54788614  .00020276  00000-0  12876-2 0  9998,2 53984  53.2173 333.6828 0002583  82.2704 277.8581 15.08860723 88594,6917.817,95.436,541.469,537.895,0.0
53984.0,STARLINK-5142,PAYLOAD,2024-05-10 21:05:52,15.08856892,0.0001022,53.217,332.1948,93.595,266.5159,0.0024482,0.00038908,0.0,0 STARLINK-5142,1 53984U 22125W   24131.87908545  .00038908  00000-0  24482-2 0  9998,2 53984  53.2170 332.1948 0001022  93.5950 266.5159 15.08856892 88715,6917.829,95.436,540.401,538.987,0.0
53984.0,STARLINK-5142,PAYLOAD,2024-05-11 12:59:41,15.08955166,0.0001046,53.2171,329.2209,90.4512,269.66,0.0043648,0.0007009,0.0,0 STARLINK-5142,1 53984U 22125W   24132.54145558  .00070090  00000-0  43648-2 0  9993,2 53984  53.2171 329.2209 0001046  90.4512 269.6600 15.08955166 88819,6917.528,95.43,540.117,538.67,0.0
53984.0,STARLINK-5142,PAYLOAD,2024-05-11 19:21:15,15.08790391,0.0001171,53.2173,328.0312,103.4031,256.7092,-0.0046569,-0.00073545,0.0,0 STARLINK-5142,1 53984U 22125W   24132.80643343 -.00073545  00000-0 -46569-2 0  9992,2 53984  53.2173 328.0312 0001171 103.4031 256.7092 15.08790391 88856,6918.032,95.441,540.707,539.087,0.0
53984.0,STARLINK-5142,PAYLOAD,2024-05-12 12:50:35,15.0872819,1.15e-05,53.2174,324.7606,320.4756,39.6227,0.0013584,0.00021331,0.0,0 STARLINK-5142,1 53984U 22125W   24133.53512759  .00021331  00000-0  13584-2 0  9994,2 53984  53.2174 324.7606 0000115 320.4756  39.6227 15.08728190 88966,6918.222,95.445,540.167,540.008,0.0
53984.0,STARLINK-5142,PAYLOAD,2024-05-12 19:12:08,15.08804607,0.0001453,53.2172,323.5711,88.5481,271.5677,0.0038072,0.00060767,0.0,0 STARLINK-5142,1 53984U 22125W   24133.80009381  .00060767  00000-0  38072-2 0  9991,2 53984  53.2172 323.5711 0001453  88.5481 271.5677 15.08804607 89001,6917.989,95.44,540.859,538.848,0.0
53984.0,STARLINK-5142,PAYLOAD,2024-05-13 19:02:54,15.08865985,0.0001436,53.2176,319.1107,86.7025,273.4131,0.0012983,0.00020449,0.0,0 STARLINK-5142,1 53984U 22125W   24134.79368812  .00020449  00000-0  12983-2 0  9993,2 53984  53.2176 319.1107 0001436  86.7025 273.4131 15.08865985 89158,6917.801,95.436,540.659,538.673,0.0
53984.0,STARLINK-5142,PAYLOAD,2024-05-13 22:13:40,15.088704,0.0001459,53.2177,318.5165,84.8844,275.2315,0.0013134,0.00020694,0.0,0 STARLINK-5142,1 53984U 22125W   24134.92616580  .00020694  00000-0  13134-2 0  9997,2 53984  53.2177 318.5165 0001459  84.8844 275.2315 15.08870400 89106,6917.787,95.436,540.662,538.643,0.0
53984.0,STARLINK-5142,PAYLOAD,2024-05-14 12:32:07,15.08891914,0.0001348,53.2172,315.8388,84.4582,275.6563,0.0011902,0.00018732,0.0,0 STARLINK-5142,1 53984U 22125W   24135.52230901  .00018732  00000-0  11902-2 0  9994,2 53984  53.2172 315.8388 0001348  84.4582 275.6563 15.08891914 89191,6917.722,95.434,540.519,538.654,0.0
53984.0,STARLINK-5142,PAYLOAD,2024-05-14 18:53:38,15.08917715,0.0001281,53.2166,314.6484,82.654,277.4598,0.0017741,0.0002812,0.0,0 STARLINK-5142,1 53984U 22125W   24135.78725506  .00028120  00000-0  17741-2 0  9991,2 53984  53.2166 314.6484 0001281  82.6540 277.4598 15.08917715 89239,6917.643,95.433,540.394,538.622,0.0
53984.0,STARLINK-5142,PAYLOAD,2024-05-15 04:25:54,15.08964672,0.0001256,53.2181,312.8651,295.2038,64.8824,0.0021594,0.00034364,0.0,0 STARLINK-5142,1 53984U 22125W   24136.18466044  .00034364  00000-0  21594-2 0  9993,2 53984  53.2181 312.8651 0001256 295.2038  64.8824 15.08964672 89366,6917.499,95.43,540.233,538.496,0.0
53984.0,STARLINK-5142,PAYLOAD,2024-05-15 12:22:51,15.08851745,0.0002189,53.2193,311.3768,65.4437,294.6783,-0.0014587,-0.00023437,0.0,0 STARLINK-5142,1 53984U 22125W   24136.51587830 -.00023437  00000-0 -14587-2 0  9992,2 53984  53.2193 311.3768 0002189  65.4437 294.6783 15.08851745 89417,6917.844,95.437,541.224,538.195,0.0
